[{"OBJECT_NAME":"STARLINK-35144","OBJECT_ID":"2025-200U","EPOCH":"2026-03-09T17:14:37.836672","MEAN_MOTION":15.05654471,"ECCENTRICITY":0.00010828,"INCLINATION":97.6002,"RA_OF_ASC_NODE":139.7984,"ARG_OF_PERICENTER":131.9308,"MEAN_ANOMALY":228.2011,"EPHEMERIS_TYPE":0,"CLASSIFICATION_TYPE":"U","NORAD_CAT_ID":65538,"ELEMENT_SET_NO":999,"REV_AT_EPOCH":2913,"BSTAR":5.3980827e-5,"MEAN_MOTION_DOT":7.18e-6,"MEAN_MOTION_DDOT":0},{"OBJECT_NAME":"FALCON 9 DEB","OBJECT_ID":"2021-041BG","EPOCH":"2026-03-09T15:47:07.516032","MEAN_MOTION":15.0585876,"ECCENTRICITY":0.00124165,"INCLINATION":53.0346,"RA_OF_ASC_NODE":200.9185,"ARG_OF_PERICENTER":159.6872,"MEAN_ANOMALY":200.4613,"EPHEMERIS_TYPE":0,"CLASSIFICATION_TYPE":"U","NORAD_CAT_ID":48607,"ELEMENT_SET_NO":999,"REV_AT_EPOCH":26415,"BSTAR":0.00013916149,"MEAN_MOTION_DOT":1.762e-5,"MEAN_MOTION_DDOT":0}]
